[{"OBJECT_NAME":"FLOCK 4G-21","OBJECT_ID":"2025-009AU","EPOCH":"2026-03-09T04:40:37.351200","MEAN_MOTION":15.28381075,"ECCENTRICITY":4.655e-5,"INCLINATION":97.4032,"RA_OF_ASC_NODE":151.1274,"ARG_OF_PERICENTER":329.5782,"MEAN_ANOMALY":30.5431,"EPHEMERIS_TYPE":0,"CLASSIFICATION_TYPE":"U","NORAD_CAT_ID":62651,"ELEMENT_SET_NO":999,"REV_AT_EPOCH":6367,"BSTAR":0.00049618643,"MEAN_MOTION_DOT":0.00013648,"MEAN_MOTION_DDOT":0},{"OBJECT_NAME":"STARLINK-34143","OBJECT_ID":"2025-095G","EPOCH":"2026-03-09T07:53:14.854560","MEAN_MOTION":15.27591094,"ECCENTRICITY":3.309e-5,"INCLINATION":42.9961,"RA_OF_ASC_NODE":178.1631,"ARG_OF_PERICENTER":216.7211,"MEAN_ANOMALY":143.3618,"EPHEMERIS_TYPE":0,"CLASSIFICATION_TYPE":"U","NORAD_CAT_ID":63896,"ELEMENT_SET_NO":999,"REV_AT_EPOCH":4773,"BSTAR":0.0014702704,"MEAN_MOTION_DOT":0.00040432,"MEAN_MOTION_DDOT":0}]
